LEMUR-2-MYRA            
1 66787U 25276EC  26195.13620692  .00003583  00000+0  28738-3 0  9997
2 66787  97.5222 265.1383 0018709  57.4566 302.8462 15.00581958 34250
LEMUR-2 FIKRETDENGIZ    
1 67363U 26004A   26194.95775284  .00002200  00000+0  24244-3 0  9998
2 67363  97.8023 193.1085 0010267  59.2566 300.9661 14.88512140 27268
TWILIGHT-1 OBJECT B     
1 67364U 26004B   26194.52351148  .00000944  00000+0  10933-3 0  9994
2 67364  97.8074 192.6825 0009855  50.7792 309.4298 14.87790232 27202
LEMUR-2-MARIO-SOUSA     
1 67365U 26004C   26195.00500302  .00002732  00000+0  29801-3 0  9998
2 67365  97.7996 193.1501 0009895  60.3024 299.9177 14.88721612 27285
LEMUR-2-SONNENBLUME     
1 67367U 26004E   26194.94041178  .00001491  00000+0  16643-3 0  9994
2 67367  97.8000 193.0597 0009463  61.6526 298.5644 14.88449605 27272
LEMUR-2-WOBLER          
1 67368U 26004F   26194.99712032  .00002167  00000+0  23788-3 0  9993
2 67368  97.8046 193.2653 0009543  53.5609 306.6486 14.88692475 27280
LEMUR-2-GRAM-E-SUE      
1 67370U 26004H   26194.98916458  .00001281  00000+0  14336-3 0  9998
2 67370  97.7985 193.1242 0008669  64.1475 296.0635 14.88586337 27281
LEMUR-2-KATIE           
1 67387U 26004AA  26194.94747198  .00003027  00000+0  31770-3 0  9996
2 67387  97.8042 193.6305 0003604  37.0859 323.0608 14.90244792 27299
LEMUR-2-HCS-BAZUS       
1 67388U 26004AB  26194.54297352  .00001614  00000+0  17207-3 0  9994
2 67388  97.8038 193.2094 0003154  36.4661 323.6771 14.90256181 27236
